{"type": "FeatureCollection", "features": [ {"type": "Feature", "properties": {"norad_id": 33492, "name": "GOSAT (IBUKI)", "group": "resource", "lat": -71.68275871578146, "lon": -111.56770344852559, "alt_km": 676.8357041244744, "timestamp": "2025-12-11T05:00:25.967717+00:00", "meta": {"OBJECT_NAME": "GOSAT (IBUKI)", "OBJECT_ID": "2009-002A", "EPOCH": "2025-12-10T18:02:15.123552", "MEAN_MOTION": 14.67549167, "ECCENTRICITY": 9.469e-05, "INCLINATION": 98.0769, "RA_OF_ASC_NODE": 93.3825, "ARG_OF_PERICENTER": 89.8931, "MEAN_ANOMALY": 270.2382, "EPHEMERIS_TYPE": 0, "CLASSIFICATION_TYPE": "U", "NORAD_CAT_ID": 33492, "ELEMENT_SET_NO": 999, "REV_AT_EPOCH": 90382, "BSTAR": 0.00026898535, "MEAN_MOTION_DOT": 1.478e-05, "MEAN_MOTION_DDOT": 0}, "tle": {"line1": "1 33492U 09002A   25344.75156393  .00001478  00000+0  26899-3 0  9995", "line2": "2 33492  98.0769  93.3825 0000946  89.8931 270.2382 14.67549167903825"}}, "geometry": {"type": "Point", "coordinates": [-111.56770344852559, -71.68275871578146]}}, {"type": "Feature", "properties": {"norad_id": 35681, "name": "DEIMOS-1", "group": "resource", "lat": -68.15140281953555, "lon": 165.6439823853287, "alt_km": 654.2691193462206, "timestamp": "2025-12-11T05:00:25.967728+00:00", "meta": {"OBJECT_NAME": "DEIMOS-1", "OBJECT_ID": "2009-041A", "EPOCH": "2025-12-10T21:10:51.958848", "MEAN_MOTION": 14.74947467, "ECCENTRICITY": 0.00027455, "INCLINATION": 97.715, "RA_OF_ASC_NODE": 145.5721, "ARG_OF_PERICENTER": 82.3795, "MEAN_ANOMALY": 277.7726, "EPHEMERIS_TYPE": 0, "CLASSIFICATION_TYPE": "U", "NORAD_CAT_ID": 35681, "ELEMENT_SET_NO": 999, "REV_AT_EPOCH": 87912, "BSTAR": 0.00015678571, "MEAN_MOTION_DOT": 1.006e-05, "MEAN_MOTION_DDOT": 0}, "tle": {"line1": "1 35681U 09041A   25344.88254582  .00001006  00000+0  15679-3 0  9994", "line2": "2 35681  97.7150 145.5721 0002745  82.3795 277.7726 14.74947467879129"}}, "geometry": {"type": "Point", "coordinates": [165.6439823853287, -68.15140281953555]}}, {"type": "Feature", "properties": {"norad_id": 35682, "name": "DUBAISAT-1", "group": "resource", "lat": -46.704102057896215, "lon": -72.64994514734592, "alt_km": 653.5520755069547, "timestamp": "2025-12-11T05:00:25.967738+00:00", "meta": {"OBJECT_NAME": "DUBAISAT-1", "OBJECT_ID": "2009-041B", "EPOCH": "2025-12-10T19:50:10.828608", "MEAN_MOTION": 14.74595867, "ECCENTRICITY": 0.00096895, "INCLINATION": 97.9788, "RA_OF_ASC_NODE": 115.5345, "ARG_OF_PERICENTER": 321.2115, "MEAN_ANOMALY": 38.8398, "EPHEMERIS_TYPE": 0, "CLASSIFICATION_TYPE": "U", "NORAD_CAT_ID": 35682, "ELEMENT_SET_NO": 999, "REV_AT_EPOCH": 87733, "BSTAR": 0.00035174594, "MEAN_MOTION_DOT": 2.295e-05, "MEAN_MOTION_DDOT": 0}, "tle": {"line1": "1 35682U 09041B   25344.82651422  .00002295  00000+0  35175-3 0  9997", "line2": "2 35682  97.9788 115.5345 0009689 321.2115  38.8398 14.74595867877338"}}, "geometry": {"type": "Point", "coordinates": [-72.64994514734592, -46.704102057896215]}}, {"type": "Feature", "properties": {"norad_id": 35931, "name": "OCEANSAT-2", "group": "resource", "lat": 78.74287647853822, "lon": -147.44674046020958, "alt_km": 879.9227386620769, "timestamp": "2025-12-11T05:00:25.967749+00:00", "meta": {"OBJECT_NAME": "OCEANSAT-2", "OBJECT_ID": "2009-051A", "EPOCH": "2025-12-10T23:23:47.002848", "MEAN_MOTION": 13.99625042, "ECCENTRICITY": 0.00162736, "INCLINATION": 98.2224, "RA_OF_ASC_NODE": 345.7545, "ARG_OF_PERICENTER": 49.6792, "MEAN_ANOMALY": 310.5794, "EPHEMERIS_TYPE": 0, "CLASSIFICATION_TYPE": "U", "NORAD_CAT_ID": 35931, "ELEMENT_SET_NO": 999, "REV_AT_EPOCH": 85300, "BSTAR": -7.5813988e-05, "MEAN_MOTION_DOT": -1.48e-06, "MEAN_MOTION_DDOT": 0}, "tle": {"line1": "1 35931U 09051A   25344.97484957 -.00000148  00000+0 -75814-4 0  9990", "line2": "2 35931  98.2224 345.7545 0016273  49.6792 310.5794 13.99625042853005"}}, "geometry": {"type": "Point", "coordinates": [-147.44674046020958, 78.74287647853822]}}, {"type": "Feature", "properties": {"norad_id": 35946, "name": "WORLDVIEW-2 (WV-2)", "group": "resource", "lat": 8.969898655512997, "lon": 54.965096832057135, "alt_km": 766.1411522626322, "timestamp": "2025-12-11T05:00:25.967760+00:00", "meta": {"OBJECT_NAME": "WORLDVIEW-2 (WV-2)", "OBJECT_ID": "2009-055A", "EPOCH": "2025-12-10T22:17:01.519584", "MEAN_MOTION": 14.3765145, "ECCENTRICITY": 0.00053276, "INCLINATION": 98.4762, "RA_OF_ASC_NODE": 56.0377, "ARG_OF_PERICENTER": 71.2855, "MEAN_ANOMALY": 288.891, "EPHEMERIS_TYPE": 0, "CLASSIFICATION_TYPE": "U", "NORAD_CAT_ID": 35946, "ELEMENT_SET_NO": 999, "REV_AT_EPOCH": 84859, "BSTAR": 0.00010637734, "MEAN_MOTION_DOT": 2.76e-06, "MEAN_MOTION_DDOT": 0}, "tle": {"line1": "1 35946U 09055A   25344.92848981  .00000276  00000+0  10638-3 0  9998", "line2": "2 35946  98.4762  56.0377 0005327  71.2855 288.8910 14.37651450848594"}}, "geometry": {"type": "Point", "coordinates": [54.965096832057135, 8.969898655512997]}}, {"type": "Feature", "properties": {"norad_id": 36036, "name": "SMOS", "group": "resource", "lat": 32.92223282065315, "lon": 164.76415446499556, "alt_km": 756.836355927885, "timestamp": "2025-12-11T05:00:25.967774+00:00", "meta": {"OBJECT_NAME": "SMOS", "OBJECT_ID": "2009-059A", "EPOCH": "2025-12-10T22:10:52.270176", "MEAN_MOTION": 14.39738717, "ECCENTRICITY": 0.00011001, "INCLINATION": 98.4381, "RA_OF_ASC_NODE": 169.9995, "ARG_OF_PERICENTER": 84.8579, "MEAN_ANOMALY": 275.2734, "EPHEMERIS_TYPE": 0, "CLASSIFICATION_TYPE": "U", "NORAD_CAT_ID": 36036, "ELEMENT_SET_NO": 999, "REV_AT_EPOCH": 84636, "BSTAR": 0.0002034749, "MEAN_MOTION_DOT": 5.94e-06, "MEAN_MOTION_DDOT": 0}, "tle": {"line1": "1 36036U 09059A   25344.92421609  .00000594  00000+0  20347-3 0  9998", "line2": "2 36036  98.4381 169.9995 0001100  84.8579 275.2734 14.39738717846361"}}, "geometry": {"type": "Point", "coordinates": [164.76415446499556, 32.92223282065315]}}, {"type": "Feature", "properties": {"norad_id": 36110, "name": "YAOGAN-7", "group": "resource", "lat": 9.375245563986008, "lon": -134.36451414574248, "alt_km": 636.1820862437135, "timestamp": "2025-12-11T05:00:25.967786+00:00", "meta": {"OBJECT_NAME": "YAOGAN-7", "OBJECT_ID": "2009-069A", "EPOCH": "2025-12-10T22:27:50.892480", "MEAN_MOTION": 14.77728134, "ECCENTRICITY": 0.00234141, "INCLINATION": 98.0302, "RA_OF_ASC_NODE": 226.6995, "ARG_OF_PERICENTER": 287.4404, "MEAN_ANOMALY": 72.4246, "EPHEMERIS_TYPE": 0, "CLASSIFICATION_TYPE": "U", "NORAD_CAT_ID": 36110, "ELEMENT_SET_NO": 999, "REV_AT_EPOCH": 86182, "BSTAR": 0.00015314371, "MEAN_MOTION_DOT": 1.049e-05, "MEAN_MOTION_DDOT": 0}, "tle": {"line1": "1 36110U 09069A   25344.93600570  .00001049  00000+0  15314-3 0  9993", "line2": "2 36110  98.0302 226.6995 0023414 287.4404  72.4246 14.77728134861821"}}, "geometry": {"type": "Point", "coordinates": [-134.36451414574248, 9.375245563986008]}}, {"type": "Feature", "properties": {"norad_id": 36605, "name": "TANDEM-X", "group": "resource", "lat": 26.752513057567604, "lon": -13.168501726400846, "alt_km": 506.72540658885646, "timestamp": "2025-12-11T05:00:25.967795+00:00", "meta": {"OBJECT_NAME": "TANDEM-X", "OBJECT_ID": "2010-030A", "EPOCH": "2025-12-10T13:04:49.497312", "MEAN_MOTION": 15.19152954, "ECCENTRICITY": 0.0001855, "INCLINATION": 97.4451, "RA_OF_ASC_NODE": 349.9572, "ARG_OF_PERICENTER": 84.2987, "MEAN_ANOMALY": 275.8459, "EPHEMERIS_TYPE": 0, "CLASSIFICATION_TYPE": "U", "NORAD_CAT_ID": 36605, "ELEMENT_SET_NO": 999, "REV_AT_EPOCH": 85800, "BSTAR": 0.00014449, "MEAN_MOTION_DOT": 2.969e-05, "MEAN_MOTION_DDOT": 0}, "tle": {"line1": "1 36605U 10030A   25344.54501733  .00002969  00000+0  14449-3 0  9990", "line2": "2 36605  97.4451 349.9572 0001855  84.2987 275.8459 15.19152954858001"}}, "geometry": {"type": "Point", "coordinates": [-13.168501726400846, 26.752513057567604]}}, {"type": "Feature", "properties": {"norad_id": 36795, "name": "CARTOSAT-2B", "group": "resource", "lat": -67.53581246558731, "lon": 53.6099460242364, "alt_km": 648.3266571462345, "timestamp": "2025-12-11T05:00:25.967805+00:00", "meta": {"OBJECT_NAME": "CARTOSAT-2B", "OBJECT_ID": "2010-035A", "EPOCH": "2025-12-10T22:49:21.843264", "MEAN_MOTION": 14.78783295, "ECCENTRICITY": 0.00129314, "INCLINATION": 97.785, "RA_OF_ASC_NODE": 34.0391, "ARG_OF_PERICENTER": 82.6288, "MEAN_ANOMALY": 277.6392, "EPHEMERIS_TYPE": 0, "CLASSIFICATION_TYPE": "U", "NORAD_CAT_ID": 36795, "ELEMENT_SET_NO": 999, "REV_AT_EPOCH": 83203, "BSTAR": 8.690684e-05, "MEAN_MOTION_DOT": 5.89e-06, "MEAN_MOTION_DDOT": 0}, "tle": {"line1": "1 36795U 10035A   25344.95094726  .00000589  00000+0  86907-4 0  9994", "line2": "2 36795  97.7850  34.0391 0012931  82.6288 277.6392 14.78783295832034"}}, "geometry": {"type": "Point", "coordinates": [53.6099460242364, -67.53581246558731]}}, {"type": "Feature", "properties": {"norad_id": 36834, "name": "YAOGAN-10", "group": "resource", "lat": -20.826483274028636, "lon": 8.0735799287898, "alt_km": 620.4062783170357, "timestamp": "2025-12-11T05:00:25.967815+00:00", "meta": {"OBJECT_NAME": "YAOGAN-10", "OBJECT_ID": "2010-038A", "EPOCH": "2025-12-11T00:31:01.439616", "MEAN_MOTION": 14.84597048, "ECCENTRICITY": 0.00014558, "INCLINATION": 97.9145, "RA_OF_ASC_NODE": 4.8545, "ARG_OF_PERICENTER": 85.0752, "MEAN_ANOMALY": 334.7239, "EPHEMERIS_TYPE": 0, "CLASSIFICATION_TYPE": "U", "NORAD_CAT_ID": 36834, "ELEMENT_SET_NO": 999, "REV_AT_EPOCH": 82928, "BSTAR": 0.0004708923, "MEAN_MOTION_DOT": 3.924e-05, "MEAN_MOTION_DDOT": 0}, "tle": {"line1": "1 36834U 10038A   25345.02154444  .00003924  00000+0  47089-3 0  9997", "line2": "2 36834  97.9145   4.8545 0001455  85.0752 334.7239 14.84597048829289"}}, "geometry": {"type": "Point", "coordinates": [8.0735799287898, -20.826483274028636]}}]}